SDO                     
1 36395U 10005A   26074.04751044 -.00000052  00000+0  00000+0 0  9992
2 36395  34.4520  87.7669 0000115  94.8146 265.3359  1.00275126 59122
INTELSAT 16 (IS-16)     
1 36397U 10006A   26073.98129683 -.00000245  00000+0  00000+0 0  9999
2 36397   0.0234  89.0587 0001982 280.4404  80.1506  1.00271505 58709
EWS-G2 (GOES 15)        
1 36411U 10008A   26073.93761663  .00000021  00000+0  00000+0 0  9994
2 36411   1.0327  84.9029 0002495  17.6924 110.8883  1.00270266 58692
ECHOSTAR 14             
1 36499U 10010A   26074.04413042  .00000000  00000+0  00000+0 0  9998
2 36499   0.0236 173.8722 0001872 179.2779  76.5047  1.00270887 45601
SES-1                   
1 36516U 10016A   26074.26157800 -.00000115  00000+0  00000+0 0  9993
2 36516   0.0491 286.1325 0002541  67.4448 172.4490  1.00272375 58095
ASTRA 3B                
1 36581U 10021A   26074.21495115  .00000137  00000+0  00000+0 0  9993
2 36581   1.2261  84.7531 0003293 285.2479 263.6935  1.00269466 57920
COMSATBW-2              
1 36582U 10021B   26074.27961642  .00000087  00000+0  00000+0 0  9997
2 36582   0.0358 231.1080 0002486 134.8485 280.7997  1.00268986 58016
BEIDOU-2 G3             
1 36590U 10024A   26074.08339059 -.00000133  00000+0  00000+0 0  9992
2 36590   4.2913  61.8788 0008099 325.6430 254.7634  1.00274931 57821
BADR-5                  
1 36592U 10025A   26074.28662479  .00000144  00000+0  00000+0 0  9993
2 36592   0.0595 113.0856 0001696 306.5393 242.4090  1.00272939 52271
COMS 1                  
1 36744U 10032A   26073.95044337 -.00000342  00000+0  00000+0 0  9991
2 36744   4.5606  76.7030 0000805 289.7082 276.4638  1.00272483 50142
ARABSAT-5A              
1 36745U 10032B   26074.28766479  .00000153  00000+0  00000+0 0  9996
2 36745   0.0679  45.1232 0003051 343.9126 277.9659  1.00277159 57709
ECHOSTAR 15             
1 36792U 10034A   26074.25811132 -.00000001  00000+0  00000+0 0  9997
2 36792   0.0216 252.7336 0001945 107.4843 146.7502  1.00272944 57389
NILESAT 201             
1 36830U 10037A   26074.20888446 -.00000059  00000+0  00000+0 0  9993
2 36830   0.0180 187.7906 0002534 164.2910 248.9174  1.00272270 57431
RASCOM-QAF 1R           
1 36831U 10037B   26074.28220477  .00000017  00000+0  00000+0 0  9999
2 36831   0.0160 113.9587 0006529 238.9227 284.4782  1.00270549 57363
AEHF-1 (USA 214)        
1 36868U 10039A   26074.14492418  .00000152  00000+0  00000+0 0  9992
2 36868   7.9864  69.2703 0004291 282.4494 263.1365  1.00270528 52719
ZHONGXING-6A            
1 37150U 10042A   26074.18678435  .00000064  00000+0  00000+0 0  9992
2 37150   3.9818  78.3998 0004402 252.0436 150.8654  0.99694862 56949
XM-5                    
1 37185U 10053A   26073.97349679 -.00000024  00000+0  00000+0 0  9990
2 37185   0.0698 271.8650 0003580 256.4013 239.5673  1.00270062 56537
