[{"OBJECT_NAME":"SDO","OBJECT_ID":"2010-005A","EPOCH":"2026-03-15T01:08:24.902016","MEAN_MOTION":1.00275126,"ECCENTRICITY":1.152e-5,"INCLINATION":34.452,"RA_OF_ASC_NODE":87.7669,"ARG_OF_PERICENTER":94.8146,"MEAN_ANOMALY":265.3359,"EPHEMERIS_TYPE":0,"CLASSIFICATION_TYPE":"U","NORAD_CAT_ID":36395,"ELEMENT_SET_NO":999,"REV_AT_EPOCH":5912,"BSTAR":0,"MEAN_MOTION_DOT":-5.2e-7,"MEAN_MOTION_DDOT":0},{"OBJECT_NAME":"INTELSAT 16 (IS-16)","OBJECT_ID":"2010-006A","EPOCH":"2026-03-14T23:33:04.046112","MEAN_MOTION":1.00271505,"ECCENTRICITY":0.00019824,"INCLINATION":0.0234,"RA_OF_ASC_NODE":89.0587,"ARG_OF_PERICENTER":280.4404,"MEAN_ANOMALY":80.1506,"EPHEMERIS_TYPE":0,"CLASSIFICATION_TYPE":"U","NORAD_CAT_ID":36397,"ELEMENT_SET_NO":999,"REV_AT_EPOCH":5870,"BSTAR":0,"MEAN_MOTION_DOT":-2.45e-6,"MEAN_MOTION_DDOT":0},{"OBJECT_NAME":"EWS-G2 (GOES 15)","OBJECT_ID":"2010-008A","EPOCH":"2026-03-14T22:30:10.076832","MEAN_MOTION":1.00270266,"ECCENTRICITY":0.00024959,"INCLINATION":1.0327,"RA_OF_ASC_NODE":84.9029,"ARG_OF_PERICENTER":17.6924,"MEAN_ANOMALY":110.8883,"EPHEMERIS_TYPE":0,"CLASSIFICATION_TYPE":"U","NORAD_CAT_ID":36411,"ELEMENT_SET_NO":999,"REV_AT_EPOCH":5869,"BSTAR":0,"MEAN_MOTION_DOT":2.1e-7,"MEAN_MOTION_DDOT":0},{"OBJECT_NAME":"ECHOSTAR 14","OBJECT_ID":"2010-010A","EPOCH":"2026-03-15T01:03:32.868288","MEAN_MOTION":1.00270887,"ECCENTRICITY":0.00018725,"INCLINATION":0.0236,"RA_OF_ASC_NODE":173.8722,"ARG_OF_PERICENTER":179.2779,"MEAN_ANOMALY":76.5047,"EPHEMERIS_TYPE":0,"CLASSIFICATION_TYPE":"U","NORAD_CAT_ID":36499,"ELEMENT_SET_NO":999,"REV_AT_EPOCH":4560,"BSTAR":0,"MEAN_MOTION_DOT":0,"MEAN_MOTION_DDOT":0},{"OBJECT_NAME":"SES-1","OBJECT_ID":"2010-016A","EPOCH":"2026-03-15T06:16:40.339200","MEAN_MOTION":1.00272375,"ECCENTRICITY":0.00025418,"INCLINATION":0.0491,"RA_OF_ASC_NODE":286.1325,"ARG_OF_PERICENTER":67.4448,"MEAN_ANOMALY":172.449,"EPHEMERIS_TYPE":0,"CLASSIFICATION_TYPE":"U","NORAD_CAT_ID":36516,"ELEMENT_SET_NO":999,"REV_AT_EPOCH":5809,"BSTAR":0,"MEAN_MOTION_DOT":-1.15e-6,"MEAN_MOTION_DDOT":0},{"OBJECT_NAME":"ASTRA 3B","OBJECT_ID":"2010-021A","EPOCH":"2026-03-15T05:09:31.779360","MEAN_MOTION":1.00269466,"ECCENTRICITY":0.00032932,"INCLINATION":1.2261,"RA_OF_ASC_NODE":84.7531,"ARG_OF_PERICENTER":285.2479,"MEAN_ANOMALY":263.6935,"EPHEMERIS_TYPE":0,"CLASSIFICATION_TYPE":"U","NORAD_CAT_ID":36581,"ELEMENT_SET_NO":999,"REV_AT_EPOCH":5792,"BSTAR":0,"MEAN_MOTION_DOT":1.37e-6,"MEAN_MOTION_DDOT":0},{"OBJECT_NAME":"COMSATBW-2","OBJECT_ID":"2010-021B","EPOCH":"2026-03-15T06:42:38.858688","MEAN_MOTION":1.00268986,"ECCENTRICITY":0.00024867,"INCLINATION":0.0358,"RA_OF_ASC_NODE":231.108,"ARG_OF_PERICENTER":134.8485,"MEAN_ANOMALY":280.7997,"EPHEMERIS_TYPE":0,"CLASSIFICATION_TYPE":"U","NORAD_CAT_ID":36582,"ELEMENT_SET_NO":999,"REV_AT_EPOCH":5801,"BSTAR":0,"MEAN_MOTION_DOT":8.7e-7,"MEAN_MOTION_DDOT":0},{"OBJECT_NAME":"BEIDOU-2 G3","OBJECT_ID":"2010-024A","EPOCH":"2026-03-15T02:00:04.946976","MEAN_MOTION":1.00274931,"ECCENTRICITY":0.00080996,"INCLINATION":4.2913,"RA_OF_ASC_NODE":61.8788,"ARG_OF_PERICENTER":325.643,"MEAN_ANOMALY":254.7634,"EPHEMERIS_TYPE":0,"CLASSIFICATION_TYPE":"U","NORAD_CAT_ID":36590,"ELEMENT_SET_NO":999,"REV_AT_EPOCH":5782,"BSTAR":0,"MEAN_MOTION_DOT":-1.33e-6,"MEAN_MOTION_DDOT":0},{"OBJECT_NAME":"BADR-5","OBJECT_ID":"2010-025A","EPOCH":"2026-03-15T06:52:44.381856","MEAN_MOTION":1.00272939,"ECCENTRICITY":0.00016969,"INCLINATION":0.0595,"RA_OF_ASC_NODE":113.0856,"ARG_OF_PERICENTER":306.5393,"MEAN_ANOMALY":242.409,"EPHEMERIS_TYPE":0,"CLASSIFICATION_TYPE":"U","NORAD_CAT_ID":36592,"ELEMENT_SET_NO":999,"REV_AT_EPOCH":5227,"BSTAR":0,"MEAN_MOTION_DOT":1.44e-6,"MEAN_MOTION_DDOT":0},{"OBJECT_NAME":"COMS 1","OBJECT_ID":"2010-032A","EPOCH":"2026-03-14T22:48:38.307168","MEAN_MOTION":1.00272483,"ECCENTRICITY":8.055e-5,"INCLINATION":4.5606,"RA_OF_ASC_NODE":76.703,"ARG_OF_PERICENTER":289.7082,"MEAN_ANOMALY":276.4638,"EPHEMERIS_TYPE":0,"CLASSIFICATION_TYPE":"U","NORAD_CAT_ID":36744,"ELEMENT_SET_NO":999,"REV_AT_EPOCH":5014,"BSTAR":0,"MEAN_MOTION_DOT":-3.42e-6,"MEAN_MOTION_DDOT":0},{"OBJECT_NAME":"ARABSAT-5A","OBJECT_ID":"2010-032B","EPOCH":"2026-03-15T06:54:14.237856","MEAN_MOTION":1.00277159,"ECCENTRICITY":0.00030512,"INCLINATION":0.0679,"RA_OF_ASC_NODE":45.1232,"ARG_OF_PERICENTER":343.9126,"MEAN_ANOMALY":277.9659,"EPHEMERIS_TYPE":0,"CLASSIFICATION_TYPE":"U","NORAD_CAT_ID":36745,"ELEMENT_SET_NO":999,"REV_AT_EPOCH":5770,"BSTAR":0,"MEAN_MOTION_DOT":1.53e-6,"MEAN_MOTION_DDOT":0},{"OBJECT_NAME":"ECHOSTAR 15","OBJECT_ID":"2010-034A","EPOCH":"2026-03-15T06:11:40.818048","MEAN_MOTION":1.00272944,"ECCENTRICITY":0.00019459,"INCLINATION":0.0216,"RA_OF_ASC_NODE":252.7336,"ARG_OF_PERICENTER":107.4843,"MEAN_ANOMALY":146.7502,"EPHEMERIS_TYPE":0,"CLASSIFICATION_TYPE":"U","NORAD_CAT_ID":36792,"ELEMENT_SET_NO":999,"REV_AT_EPOCH":5738,"BSTAR":0,"MEAN_MOTION_DOT":-1.0e-8,"MEAN_MOTION_DDOT":0},{"OBJECT_NAME":"NILESAT 201","OBJECT_ID":"2010-037A","EPOCH":"2026-03-15T05:00:47.617344","MEAN_MOTION":1.0027227,"ECCENTRICITY":0.00025343,"INCLINATION":0.018,"RA_OF_ASC_NODE":187.7906,"ARG_OF_PERICENTER":164.291,"MEAN_ANOMALY":248.9174,"EPHEMERIS_TYPE":0,"CLASSIFICATION_TYPE":"U","NORAD_CAT_ID":36830,"ELEMENT_SET_NO":999,"REV_AT_EPOCH":5743,"BSTAR":0,"MEAN_MOTION_DOT":-5.9e-7,"MEAN_MOTION_DDOT":0},{"OBJECT_NAME":"RASCOM-QAF 1R","OBJECT_ID":"2010-037B","EPOCH":"2026-03-15T06:46:22.492128","MEAN_MOTION":1.00270549,"ECCENTRICITY":0.00065299,"INCLINATION":0.016,"RA_OF_ASC_NODE":113.9587,"ARG_OF_PERICENTER":238.9227,"MEAN_ANOMALY":284.4782,"EPHEMERIS_TYPE":0,"CLASSIFICATION_TYPE":"U","NORAD_CAT_ID":36831,"ELEMENT_SET_NO":999,"REV_AT_EPOCH":5736,"BSTAR":0,"MEAN_MOTION_DOT":1.7e-7,"MEAN_MOTION_DDOT":0},{"OBJECT_NAME":"AEHF-1 (USA 214)","OBJECT_ID":"2010-039A","EPOCH":"2026-03-15T03:28:41.449152","MEAN_MOTION":1.00270528,"ECCENTRICITY":0.00042912,"INCLINATION":7.9864,"RA_OF_ASC_NODE":69.2703,"ARG_OF_PERICENTER":282.4494,"MEAN_ANOMALY":263.1365,"EPHEMERIS_TYPE":0,"CLASSIFICATION_TYPE":"U","NORAD_CAT_ID":36868,"ELEMENT_SET_NO":999,"REV_AT_EPOCH":5271,"BSTAR":0,"MEAN_MOTION_DOT":1.52e-6,"MEAN_MOTION_DDOT":0},{"OBJECT_NAME":"ZHONGXING-6A","OBJECT_ID":"2010-042A","EPOCH":"2026-03-15T04:28:58.167840","MEAN_MOTION":0.99694862,"ECCENTRICITY":0.00044021,"INCLINATION":3.9818,"RA_OF_ASC_NODE":78.3998,"ARG_OF_PERICENTER":252.0436,"MEAN_ANOMALY":150.8654,"EPHEMERIS_TYPE":0,"CLASSIFICATION_TYPE":"U","NORAD_CAT_ID":37150,"ELEMENT_SET_NO":999,"REV_AT_EPOCH":5694,"BSTAR":0,"MEAN_MOTION_DOT":6.4e-7,"MEAN_MOTION_DDOT":0},{"OBJECT_NAME":"XM-5","OBJECT_ID":"2010-053A","EPOCH":"2026-03-14T23:21:50.122656","MEAN_MOTION":1.00270062,"ECCENTRICITY":0.00035809,"INCLINATION":0.0698,"RA_OF_ASC_NODE":271.865,"ARG_OF_PERICENTER":256.4013,"MEAN_ANOMALY":239.5673,"EPHEMERIS_TYPE":0,"CLASSIFICATION_TYPE":"U","NORAD_CAT_ID":37185,"ELEMENT_SET_NO":999,"REV_AT_EPOCH":5653,"BSTAR":0,"MEAN_MOTION_DOT":-2.4e-7,"MEAN_MOTION_DDOT":0}]
